{"crs": {"type": "name", "properties": {"name": "urn:ogc:def:crs:EPSG::4326"}}, "type": "FeatureCollection", "features": [{"geometry": {"type": "MultiPolygon", "coordinates": [[[[-3.088168034999967, 58.58267274900004], [-3.139240858999926, 58.41680965100005], [-3.152635075999967, 58.373310857000035], [-3.344420395999975, 58.25940952000008], [-4.045851997999932, 57.88887846300008], [-3.890608272999941, 57.782396592000055], [-4.107044446999964, 57.68719253100005], [-4.124233173999926, 57.53677920000007], [-3.762302629999965, 57.63064590700003], [-3.503177883999967, 57.67658225400004], [-3.344420395999975, 57.71189796800007], [-3.139240858999926, 57.70556772900005], [-2.801445236999939, 57.69514599400003], [-2.085000975999947, 57.693387503000054], [-1.948536339999976, 57.66194619300006], [-1.879358388999947, 57.64600766500007], [-1.79815707399996, 57.460348785000065], [-1.948536339999976, 57.318483265000054], [-2.061512284999935, 57.21190347100003], [-2.085121034999929, 57.085917204000054], [-2.25318227799994, 56.85434980900004], [-2.444887985999969, 56.751622620000035], [-2.526647919999959, 56.587067965000074], [-2.71432316399995, 56.491465127000026], [-2.838681252999947, 56.47406363600004], [-3.051858783999933, 56.458343358000036], [-3.139240858999926, 56.41220195800008], [-3.253218713999956, 56.352016871000046], [-3.139240858999926, 56.37816846700008], [-2.862175202999936, 56.44173966800008], [-2.639312927999924, 56.270739810000066], [-3.139240858999926, 56.118800717000056], [-3.344420395999975, 56.05644214300003], [-3.457117839999967, 56.02219091100005], [-3.738533268999959, 56.07827853300006], [-3.745075436999969, 56.07241888800007], [-3.693270968999968, 56.02241372800006], [-3.516019943999936, 56.002100373000076], [-3.425346184999967, 55.993799918000036], [-3.344420395999975, 55.98279285700005], [-3.139240858999926, 55.95488551600005], [-3.077939322999953, 55.94654763300008], [-2.751971500999957, 56.06025607000004], [-2.366613109999946, 55.94596571500006], [-2.15055685599998, 55.908480463000046], [-2.034348686999977, 55.811080107000066], [-1.948536339999976, 55.75543024000007], [-1.629874031999975, 55.54877565500004], [-1.492577125999958, 55.10159087100004], [-1.461789865999947, 55.074310421000064], [-1.46080496999997, 54.98692509400007], [-1.399447069999951, 54.99183246900003], [-1.363940028999934, 54.94411650700005], [-1.347537410999962, 54.86049759600007], [-1.24107382699998, 54.723226889000046], [-1.18151974899996, 54.68014524300003], [-1.200722299999939, 54.62275954200004], [-1.154246498999953, 54.62068982000005], [-1.079183152999974, 54.60783098100006], [-0.932798724999941, 54.58275437700007], [-0.793884152999965, 54.558957408000026], [-0.54361856099996, 54.44640430100003], [-0.212557408999942, 54.157695370000056], [-0.15969505399994, 54.12802130000006], [-0.185628116999965, 53.963758890000065], [0.015348178000067, 53.74559730800007], [0.083478938000042, 53.66939370300008], [-0.03835307199995, 53.63787091200004], [-0.250185019999947, 53.73331290200008], [-0.419209308999939, 53.71958856900005], [-0.631107365999981, 53.72657018400008], [-0.698475624999958, 53.69534012100007], [-0.315878705999978, 53.70549333400004], [-0.200734658999977, 53.63996612700004], [0.017491870000072, 53.52553097200007], [0.175584708000031, 53.45771656100004], [0.216369, 53.39900078800008], [0.33782577300002, 53.22414355800004], [0.32756590200006, 53.10844761700008], [0.216369, 53.02782208200006], [0.080502140000021, 52.92930910200005], [0.216369, 52.84740610700004], [0.268754689000048, 52.81582706800003], [0.406357081000067, 52.83932206000003], [0.573245139000051, 52.974191319000056], [0.670759356000076, 52.973445695000066], [1.022720064000055, 52.97075449600004], [1.340036154000074, 52.91597516500008], [1.675129718000051, 52.742663907000065], [1.74021357700002, 52.532117561000064], [1.561078936000058, 52.09033281200004], [1.331962626000063, 51.956719183000075], [1.053803353000035, 51.95307647700008], [1.226401986000042, 51.93684916600006], [1.239677221000022, 51.84824996900005], [1.124737878000076, 51.783151529000065], [0.986329417000036, 51.82116128500007], [0.843209670000022, 51.78080648800005], [0.93288781800004, 51.67583238100008], [0.813945218000072, 51.62310926400005], [0.885627666000062, 51.596805129000074], [0.820924845000036, 51.54094611800008], [0.670759356000076, 51.53440445700005], [0.627300735000063, 51.532511269000054], [0.51296084400002, 51.53192614200003], [0.37963540800007, 51.44848637600006], [0.459337441000059, 51.45556157200008], [0.665091572000051, 51.45180549000003], [0.626940248000039, 51.374764424000034], [0.670759356000076, 51.39393072900003], [0.773917515000051, 51.43905170000005], [0.950446790000058, 51.34561302000003], [1.393454052000038, 51.38678345400007], [1.393682529000046, 51.185683280000035], [1.027290152000035, 51.037198051000075], [0.949094203000072, 50.92154409300008], [0.855075616000022, 50.92390350200003], [0.670759356000076, 50.870444202000044], [0.252389612000059, 50.749099759000046], [0.216369, 50.75528257700006], [-0.038544743999978, 50.799037671000065], [-0.089507823999952, 50.811074793000046], [-0.176975848999973, 50.82406435300004], [-0.216010038999968, 50.82755047900008], [-0.796602163999978, 50.72563152100008], [-0.932644834999962, 50.846223198000075], [-1.020547325999928, 50.83894299900004], [-1.079183152999974, 50.80201472300007], [-1.11705771499993, 50.842939639000065], [-1.188670282999965, 50.80826448500005], [-1.365062630999944, 50.88004089400005], [-1.439118274999942, 50.90523355300007], [-1.389605402999962, 50.865551494000044], [-1.345366994999949, 50.799401068000066], [-1.579554770999948, 50.72610633700003], [-1.692501634999928, 50.73727208300005], [-1.948536339999976, 50.72189633800008], [-2.031323998999937, 50.716924661000064], [-1.974866485999939, 50.62995960500007], [-2.094438612999966, 50.58693609100004], [-2.476892258999953, 50.60074141300004], [-2.947628752999947, 50.718263198000045], [-3.139240858999926, 50.68508671600006], [-3.264319347999958, 50.66343013000005], [-3.344420395999975, 50.61541097700007], [-3.509163728999965, 50.51665028000008], [-3.507579003999979, 50.379179126000054], [-3.711593745999949, 50.21223475800008], [-4.123069769999972, 50.346681604000025], [-4.187043009999968, 50.42440338900008], [-4.228993903999935, 50.456500693000066], [-4.210418771999969, 50.33119170300006], [-4.701783875999979, 50.34318663000005], [-4.808250920999967, 50.238998508000066], [-5.05692537799996, 50.144561863000035], [-5.087493294999945, 50.040881865000074], [-5.180845741999974, 49.97967954000006], [-5.452069642999959, 50.11351927900006], [-5.633988464999959, 50.046393161000026], [-5.699279624999974, 50.078795908000075], [-5.613976258999969, 50.174635272000046], [-5.213530695999964, 50.319341903000065], [-5.003399825999963, 50.546754571000065], [-4.701783875999979, 50.691049673000066], [-4.57973807999997, 50.781815479000045], [-4.559203904999947, 50.865551494000044], [-4.546017432999975, 50.92838517200005], [-4.504286072999946, 51.007864323000035], [-4.272608787999957, 51.025682310000036], [-4.180367688999979, 51.19506966500006], [-3.720776169999965, 51.23311608000006], [-3.344420395999975, 51.19072465800008], [-3.277254482999979, 51.18315932000007], [-3.139240858999926, 51.20538332000007], [-3.058321125999953, 51.21841363000004], [-2.993735485999935, 51.30649876200005], [-2.95436697699995, 51.38305117900006], [-2.710677209999972, 51.49613441100007], [-2.673863967999978, 51.54439211000005], [-2.534720336999953, 51.67722707900003], [-2.662446762999934, 51.61274638000003], [-2.821615878999978, 51.554086021000046], [-3.081983578999939, 51.500848878000056], [-3.16559187699994, 51.446112956000036], [-3.218681121999964, 51.39917916600007], [-3.344420395999975, 51.39009311700005], [-3.41807739099994, 51.38477058700005], [-3.558246063999945, 51.40840689800007], [-3.61971731999995, 51.47670417900008], [-3.762979175999931, 51.53652659200003], [-3.886274693999951, 51.61755614100008], [-4.210884516999954, 51.54919330700005], [-4.28684710899995, 51.578223620000074], [-4.261945388999948, 51.626112040000066], [-4.073338194999963, 51.68495453200006], [-4.286300635999964, 51.67869025700003], [-4.401595974999964, 51.75074908800008], [-4.632870461999971, 51.73503999300004], [-4.739316341999938, 51.666086171000075], [-5.031195164999929, 51.632263720000026], [-5.154927010999927, 51.71541989700006], [-5.153897957999959, 51.82872149700006], [-5.22355399099996, 51.88891661400004], [-4.68172790899996, 52.08590632900007], [-4.222804824999969, 52.26207206600003], [-4.045650016999957, 52.51481431700006], [-3.947179933999962, 52.55920944500008], [-4.068023745999938, 52.63265851800003], [-4.217280544999937, 52.85472433900003], [-4.508148732999928, 52.91789526000008], [-4.237025124999946, 53.14835776600006], [-4.006730943999969, 53.24702003700003], [-3.792339922999929, 53.31663279900005], [-3.496691605999956, 53.30210103200005], [-3.364128692999941, 53.353437031000055], [-3.139240858999926, 53.282074210000076], [-3.139240858999926, 53.324432165000076], [-3.173303282999939, 53.37316430800007], [-3.139240858999926, 53.38919165100003], [-3.061101039999926, 53.42595866500005], [-2.928627947999928, 53.308207992000064], [-2.752337157999932, 53.31476495700008], [-2.826703176999956, 53.33168306600004], [-2.875447928999961, 53.33353838800008], [-2.970668373999956, 53.37796022400005], [-2.99720027199993, 53.40448969500005], [-3.008736521999936, 53.43834739700003], [-3.083311401999936, 53.573399205000044], [-2.956196142999943, 53.69753183200004], [-2.860043705999942, 53.733994421000034], [-3.056602512999973, 53.776627578000046], [-3.048085369999967, 53.87573558000008], [-2.910251094999978, 53.97454115100004], [-2.837163703999977, 54.17405152500004], [-3.149119837999933, 54.09358451600008], [-3.268967232999955, 54.135273065000035], [-3.604172272999961, 54.535571538000056], [-3.375676710999926, 54.867834137000045], [-3.121063591999928, 54.92943401500003], [-3.102843200999928, 54.972259113000064], [-3.139240858999926, 54.97145601500006], [-3.344420395999975, 54.96692881900003], [-3.461103124999966, 54.96435426700003], [-3.96778362799995, 54.788638381000055], [-4.368655012999966, 54.866323599000054], [-4.425459943999954, 54.71411378700003], [-4.860143978999929, 54.83863159300006], [-4.94532040699994, 54.71142397600005], [-5.150592386999961, 54.899781407000035], [-5.130225608999979, 54.97177850400004], [-5.040173691999939, 54.99759043300003], [-5.008850007999968, 55.10159087100004], [-4.873052364999978, 55.22695437800007], [-4.83483846699994, 55.32868886800003], [-4.646751379999955, 55.46785929200007], [-4.658281785999975, 55.57019708200005], [-4.83483846699994, 55.66086060400005], [-4.885594689999948, 55.69959221700003], [-4.879990978999956, 55.80812544200006], [-4.890549480999937, 55.87467099700007], [-4.87188925099997, 55.93811294400007], [-4.83483846699994, 55.95494761800006], [-4.614221508999947, 55.93034797000007], [-4.484099524999976, 55.92827601000005], [-4.609638485999938, 55.94652855000004], [-4.757562059999941, 56.003869061000046], [-4.83483846699994, 55.98533083700005], [-4.887806263999948, 56.00099672600004], [-5.019753782999942, 55.80812544200006], [-5.010358805999942, 55.77249350100004], [-5.049947499999973, 55.75110709100005], [-5.13069502299993, 55.80812544200006], [-5.315806957999939, 55.88122238700004], [-5.328774576999933, 56.01201811900006], [-5.39842746599993, 56.00960266200008], [-5.429521549999947, 55.93748986000003], [-5.326833616999977, 55.80812544200006], [-5.460750656999949, 55.67210956800005], [-5.545840440999939, 55.34883101100007], [-5.752564670999959, 55.29725199500007], [-5.790054791999978, 55.37166385300003], [-5.619694293999942, 55.73955373100006], [-5.664571989999956, 55.80812544200006], [-5.565824752999958, 56.31913470600006], [-5.459854489999941, 56.491465127000026], [-5.325007678999953, 56.62071732000004], [-5.722240287999966, 56.51746641200003], [-6.178617052999925, 56.696926731000076], [-6.173309788999973, 56.747720971000035], [-5.875183875999937, 56.80198938400008], [-5.826036532999979, 56.861758088000045], [-5.860663485999964, 56.96348093700004], [-5.79441768199996, 57.01733139600003], [-5.689272874999972, 56.97895771100008], [-5.658074931999977, 57.04412073700007], [-5.751283368999964, 57.14417244300006], [-5.966404312999941, 57.05370361300004], [-6.025399813999968, 57.16384112900005], [-6.26452803799998, 57.156374079000045], [-6.524762452999937, 57.356401805000075], [-6.705880692999926, 57.38223447100006], [-6.734273206999944, 57.46075877200008], [-6.626334360999977, 57.48859307100008], [-6.601553928999977, 57.57395382000004], [-6.424835605999931, 57.51703329400004], [-6.392127883999933, 57.642018516000064], [-6.321204782999928, 57.671865695000065], [-6.18760285299993, 57.61091669700005], [-6.115137526999945, 57.394827973000076], [-6.030942698999979, 57.44119084600004], [-5.903796272999955, 57.284734531000026], [-5.625266196999974, 57.24021367000006], [-5.624312900999939, 57.31371018600004], [-5.798535582999932, 57.379777036000064], [-5.836401194999951, 57.456382964000056], [-5.75595140799993, 57.57470105700003], [-5.768745480999939, 57.83324805700005], [-5.638250504999974, 57.82008549900007], [-5.602902373999939, 57.903815757000075], [-5.26785672799997, 57.87443422700005], [-5.398272867999935, 58.067279315000064], [-5.314051199999938, 58.11432208000008], [-5.326660014999959, 58.22857052000006], [-5.193069697999931, 58.28378681800007], [-5.083656436999945, 58.518273916000055], [-4.986333318999925, 58.59640607600005], [-4.249768917999972, 58.53927077600008], [-3.344420395999975, 58.64842756500008], [-3.139240858999926, 58.595778127000074], [-3.088168034999967, 58.58267274900004]]], [[[-6.268166102999942, 49.92308216300006], [-6.299157862999948, 49.89870878200003], [-6.340219832999935, 49.918327297000076], [-6.34021667899998, 49.918335599000045], [-6.340216655999939, 49.91833571500007], [-6.340216272999953, 49.918347537000045], [-6.340216288999954, 49.91834765500005], [-6.340219765999962, 49.91835896100008], [-6.340219818999969, 49.91835906700004], [-6.340226777999931, 49.91836863100008], [-6.340226862999941, 49.91836871400005], [-6.340231425999946, 49.91837250900005], [-6.345069990999946, 49.92176199700003], [-6.348542787999975, 49.92653498300007], [-6.350277496999979, 49.93217701200007], [-6.35008610899996, 49.93807659500004], [-6.349773518999939, 49.93889920000004], [-6.349113164999949, 49.94063697000007], [-6.347989366999968, 49.943594328000074], [-6.344214517999944, 49.94813219300005], [-6.339170683999953, 49.95119837100003], [-6.333399671999928, 49.95246160800008], [-6.333393998999952, 49.95246335100006], [-6.333393888999979, 49.95246339500005], [-6.333383781999942, 49.95246953900005], [-6.333383691999927, 49.95246961700008], [-6.333376126999951, 49.95247871000004], [-6.333376066999961, 49.95247881200004], [-6.333371864999947, 49.95248986900003], [-6.333371840999973, 49.95248998500006], [-6.333371552999949, 49.95249886100004], [-6.280180248999955, 49.95516787200006], [-6.280179012999952, 49.95515891100007], [-6.280178977999981, 49.95515879800007], [-6.280173622999939, 49.955148217000044], [-6.280173552999941, 49.955148122000026], [-6.280165045999979, 49.95513986100008], [-6.280164948999925, 49.95513979300006], [-6.280154215999971, 49.95513475100006], [-6.280154101999926, 49.95513471800007], [-6.280148259999976, 49.95513359100005], [-6.274540017999925, 49.95452726000008], [-6.269401333999951, 49.952211728000066], [-6.265235397999959, 49.94841531600008], [-6.262453883999967, 49.94351318000008], [-6.261331654999935, 49.93798974200007], [-6.261979609999969, 49.93239082000008], [-6.264333717999932, 49.927269694000074], [-6.26816449699993, 49.92312902400005], [-6.268168161999938, 49.92312433700005], [-6.268168226999933, 49.92312423800007], [-6.268173007999962, 49.92311338600007], [-6.26817303699994, 49.923113271000034], [-6.26817402599994, 49.92310145400006], [-6.268174015999932, 49.92310133600006], [-6.268171104999965, 49.923089841000035], [-6.268171056999961, 49.92308973200005], [-6.268166102999942, 49.92308216300006]]], [[[-4.122574833999977, 50.33342275700005], [-4.135485013999926, 50.331768958000055], [-4.163080044999958, 50.333189479000055], [-4.174341640999955, 50.33552970000005], [-4.122574833999977, 50.33342275700005]]], [[[-1.084203636999973, 50.66773717800004], [-1.27752561099993, 50.57424218800003], [-1.527303798999981, 50.68358080200005], [-1.310453308999968, 50.77221280200007], [-1.084203636999973, 50.66773717800004]]], [[[-1.378144668999937, 50.78186507700008], [-1.385760166999944, 50.77383852300005], [-1.395092206999948, 50.77687280100008], [-1.384817190999968, 50.78363945500007], [-1.378144668999937, 50.78186507700008]]], [[[-4.614019132999942, 53.289264047000074], [-4.689889666999932, 53.248044493000066], [-4.75577098499997, 53.31825267800008], [-4.653712269999971, 53.35450288200008], [-4.614019132999942, 53.289264047000074]]], [[[-4.073851930999979, 53.28888611600007], [-4.36125495999994, 53.132807384000046], [-4.508931031999964, 53.19302666700003], [-4.596329315999981, 53.33153801200007], [-4.55465401999993, 53.41161639000006], [-4.382132245999969, 53.431665492000036], [-4.073851930999979, 53.28888611600007]]], [[[-5.976527598999951, 55.05659846600008], [-5.964395871999955, 54.986886938000055], [-5.707914101999961, 54.796043514000075], [-5.868339347999949, 54.688770429000044], [-5.912931372999935, 54.64803701300008], [-5.855335866999951, 54.633770165000044], [-5.542023834999952, 54.62987524400006], [-5.467435412999976, 54.502462302000026], [-5.481488799999966, 54.40520318600005], [-5.530861025999968, 54.38932375400003], [-5.611625104999973, 54.52582677300006], [-5.64651465299994, 54.45920281700006], [-5.550547131999963, 54.34561909800004], [-5.580245584999943, 54.28170716500006], [-5.849797015999968, 54.226619432000064], [-5.881538131999946, 54.16825810000006], [-5.915281389999961, 54.10621549700005], [-6.025088749999952, 54.04407519500006], [-6.179660011999943, 54.07400852200004], [-6.268015421999962, 54.102337007000074], [-6.595093107999958, 54.04458247200006], [-6.643909148999967, 54.18001940200003], [-6.789107783999953, 54.213434765000045], [-6.864229730999966, 54.330165641000065], [-7.018495296999959, 54.40748534100004], [-7.18851030299993, 54.337681029000066], [-7.180783252999959, 54.22306549800004], [-7.290791429999956, 54.16825810000006], [-7.34325483899994, 54.14212019800004], [-7.529851642999972, 54.132160999000064], [-7.650500458999943, 54.16825810000006], [-7.835656625999945, 54.22365525200007], [-8.131701304999979, 54.429608630000075], [-7.996290759999965, 54.53385133200004], [-7.703411740999968, 54.60828787500003], [-7.820919345999926, 54.698253469000065], [-7.569371129999979, 54.76291629000008], [-7.381578008999952, 55.00470929900007], [-7.256068588999938, 55.06703496800003], [-7.147900616999948, 55.04473914300007], [-7.063685051999926, 55.052754692000065], [-7.001395722999973, 55.107215806000056], [-6.94511894599998, 55.18122306100008], [-6.460354277999954, 55.24614397100004], [-6.179660011999943, 55.21473163300004], [-6.061143226999945, 55.190475829000036], [-6.040052859999946, 55.10159087100004], [-5.976527598999951, 55.05659846600008]]], [[[-4.661575865999964, 55.528062549000026], [-4.725388377999934, 55.48998829900006], [-4.800898376999953, 55.52633244200007], [-4.720701805999965, 55.56418541600004], [-4.661575865999964, 55.528062549000026]]], [[[-5.075251074999926, 55.46093250700005], [-5.287525991999928, 55.443902173000026], [-5.422209242999941, 55.62757007400006], [-5.317835082999977, 55.720393125000044], [-5.191175659999942, 55.711483385000065], [-5.075251074999926, 55.46093250700005]]], [[[-5.950572865999959, 55.904896102000066], [-6.21554931999998, 55.58189411300003], [-6.388955956999951, 55.595000981000055], [-6.650341874999981, 55.72607003600007], [-6.328524244999926, 55.90632862700005], [-5.950572865999959, 55.904896102000066]]], [[[-3.240433607999933, 56.007606785000064], [-3.272130127999958, 55.982006385000034], [-3.308967258999928, 56.01414969500007], [-3.270025767999925, 56.04067950500007], [-3.240433607999933, 56.007606785000064]]], [[[-6.209755580999968, 56.01338808500003], [-6.274632760999964, 55.994379681000055], [-6.25617363899994, 56.08031733000007], [-6.165496338999958, 56.131407685000056], [-6.165496338999958, 56.07550038100004], [-6.209755580999968, 56.01338808500003]]], [[[-6.561634961999971, 56.13247314500006], [-6.633566641999948, 56.08337910500006], [-6.727076720999946, 56.125490065000065], [-6.624611261999974, 56.181310505000056], [-6.561634961999971, 56.13247314500006]]], [[[-6.832831942999974, 56.51333400400006], [-6.917283505999933, 56.44383199100008], [-7.00596167499998, 56.484221621000074], [-6.906315967999944, 56.53889768500005], [-6.832831942999974, 56.51333400400006]]], [[[-5.806355394999969, 56.31415117800003], [-6.238472268999942, 56.29939564600005], [-6.206619001999968, 56.427052513000035], [-6.331838637999965, 56.53496267500003], [-6.183311487999958, 56.64997851000004], [-5.662326915999927, 56.420761732000074], [-5.806355394999969, 56.31415117800003]]], [[[-6.454200473999947, 56.66503706000003], [-6.520368773999962, 56.59253402400003], [-6.629457672999933, 56.62458609300006], [-6.558808109999973, 56.67575171200008], [-6.454200473999947, 56.66503706000003]]], [[[-6.053693429999953, 56.902521438000065], [-6.126477300999966, 56.863690492000046], [-6.224532603999933, 56.911966789000076], [-6.117199964999941, 56.95764891400006], [-6.053693429999953, 56.902521438000065]]], [[[-7.363892177999958, 56.985913104000076], [-7.433744904999969, 56.942988169000046], [-7.541920494999943, 56.99102014400006], [-7.447594010999978, 57.03404185800008], [-7.363892177999958, 56.985913104000076]]], [[[-6.214491327999951, 56.98356981500007], [-6.315382858999953, 56.94898191500005], [-6.436886773999959, 57.01173263800007], [-6.295124562999945, 57.046575036000036], [-6.214491327999951, 56.98356981500007]]], [[[-7.26116640999993, 57.114264743000035], [-7.348970876999942, 57.10929113600008], [-7.415169811999931, 57.17413939100004], [-7.384039993999977, 57.49248635500004], [-7.51732524099998, 57.616834879000066], [-7.176617206999936, 57.72447671200007], [-7.053740387999937, 57.66708698700006], [-7.206423327999971, 57.414803375000076], [-7.250277573999938, 57.17413939100004], [-7.26116640999993, 57.114264743000035]]], [[[-6.159830210999928, 58.19128205800007], [-6.234528155999953, 58.16791823500006], [-6.272653121999952, 58.19605905900005], [-6.242976238999972, 58.24067601300004], [-6.151902480999979, 58.282440199000064], [-6.159830210999928, 58.19128205800007]]], [[[-6.405787710999959, 58.030319887000076], [-6.938655711999957, 57.76307616400004], [-7.056020301999979, 57.76842248000003], [-6.951471442999946, 57.91164188400006], [-7.076430930999948, 58.003974191000054], [-7.118134104999967, 58.10672687600004], [-7.04251555999997, 58.20637683900003], [-6.342751300999964, 58.47158722700004], [-6.197582682999951, 58.42581601200004], [-6.357837277999977, 58.20386339800007], [-6.405787710999959, 58.030319887000076]]], [[[-2.91104112599993, 58.84351974800006], [-2.919381213999941, 58.726860438000074], [-3.005443421999928, 58.74112047300008], [-2.981621728999926, 58.83031155900005], [-2.91104112599993, 58.84351974800006]]], [[[-4.338171981999949, 59.09772146300003], [-4.382017607999956, 59.03758886600008], [-4.490672389999929, 59.06655422500006], [-4.40762215899997, 59.13818783600004], [-4.338171981999949, 59.09772146300003]]], [[[-3.026699051999969, 59.14931714800008], [-2.863347044999955, 58.93022315400003], [-2.931671598999969, 58.89898186700003], [-3.139240858999926, 58.93114894200005], [-3.231586222999965, 58.946380747000035], [-3.27912813599994, 58.82899860600003], [-3.344420395999975, 58.83529049300006], [-3.404254259999959, 58.84105638200003], [-3.344420395999975, 59.03529983400006], [-3.325848649999955, 59.09559077500006], [-3.139240858999926, 59.17470753600003], [-3.026699051999969, 59.14931714800008]]], [[[-2.526745388999927, 59.08091244800005], [-2.596585888999925, 59.04647947300003], [-2.640847835999978, 59.08716165200008], [-2.581246680999925, 59.18708600300005], [-2.526745388999927, 59.08091244800005]]], [[[-2.728119440999933, 59.12796078100007], [-2.773722059999955, 59.109192438000036], [-2.82246123699997, 59.15774666200008], [-2.787389033999943, 59.22828274200003], [-2.734446520999938, 59.22828274200003], [-2.728119440999933, 59.12796078100007]]], [[[-2.494574937999971, 59.22822809000007], [-2.587744255999951, 59.21310017400003], [-2.636369904999981, 59.294423074000065], [-2.535455149999962, 59.30251188500006], [-2.494574937999971, 59.22822809000007]]], [[[-2.836353161999966, 59.22663397000008], [-2.939057201999958, 59.21221093000008], [-3.051947021999979, 59.29422163100003], [-2.909258256999976, 59.315786425000056], [-2.836353161999966, 59.22663397000008]]], [[[-2.002044720999947, 60.146247319000054], [-2.059142140999938, 60.07972344800004], [-2.149465709999959, 60.13740818800005], [-2.07104444099997, 60.18848815700005], [-2.002044720999947, 60.146247319000054]]], [[[-0.926522274999968, 60.36943958000006], [-0.98804879599993, 60.30098964600006], [-1.093573034999963, 60.33672778600004], [-1.003295308999952, 60.39461787100004], [-0.926522274999968, 60.36943958000006]]], [[[-0.956148638999935, 60.461161505000064], [-1.024493806999942, 60.40393052500008], [-1.079183152999974, 60.43571825400005], [-1.117110655999966, 60.45776330100006], [-1.079183152999974, 60.48026886300005], [-1.039384782999946, 60.503884568000046], [-0.956148638999935, 60.461161505000064]]], [[[-0.79842128699994, 60.78696317600003], [-0.826085052999929, 60.589549987000055], [-0.932798724999941, 60.637205032000054], [-0.961915601999976, 60.65020773400005], [-1.079183152999974, 60.50121596500003], [-1.119451890999926, 60.46443054000008], [-1.095230503999971, 60.329045044000054], [-1.157935807999934, 60.20289863800008], [-1.100994859999957, 60.16019729700008], [-1.095759232999967, 60.14003431500004], [-1.188607088999959, 60.10214984700008], [-1.299656130999949, 59.878649790000054], [-1.358268495999937, 59.918277517000035], [-1.387644138999974, 60.17296377500003], [-1.675256309999952, 60.25685808700007], [-1.651043836999975, 60.31112794100005], [-1.460120674999928, 60.367380927000056], [-1.459847740999976, 60.45477923200008], [-1.545842426999968, 60.513012608000054], [-1.474929004999979, 60.55562032800003], [-1.421082972999955, 60.60610413000006], [-1.325828074999947, 60.61634183100006], [-1.319484587999966, 60.55917154900004], [-1.334523608999973, 60.52163114900003], [-1.293781555999942, 60.455193766000036], [-1.186491256999943, 60.555913315000055], [-1.103131315999974, 60.71355271500005], [-1.079183152999974, 60.722376746000066], [-0.932798724999941, 60.75605100400003], [-0.79842128699994, 60.78696317600003]]]]}, "type": "Feature", "properties": {"SVRG_UN": "UN Member State", "CNTR_ID": "UK", "COUNTRY_URI": "GBR", "CAPT": "London", "CNTR_NAME": "United Kingdom", "STAT_CODE": "OA", "CC_STAT": "F", "NAME_ENGL": "United Kingdom", "NAME_GERM": "Vereinigtes Königreich", "EFTA_STAT": "F", "EU_STAT": "F", "ISO3_CODE": "GBR", "NAME_FREN": "Royaume-Uni"}}]}